{"type": "FeatureCollection", "features": [ {"type": "Feature", "properties": {"norad_id": 34077, "name": "IRIDIUM 33 DEB", "group": "iridium-33-debris", "lat": 86.10569940267266, "lon": 118.62282446343859, "alt_km": 666.1302912579176, "timestamp": "2025-12-15T04:01:20.836975+00:00", "meta": {"OBJECT_NAME": "IRIDIUM 33 DEB", "OBJECT_ID": "1997-051CL", "EPOCH": "2025-12-14T04:54:48.563136", "MEAN_MOTION": 14.64862687, "ECCENTRICITY": 0.00100512, "INCLINATION": 86.3862, "RA_OF_ASC_NODE": 50.8618, "ARG_OF_PERICENTER": 34.9001, "MEAN_ANOMALY": 19.1188, "EPHEMERIS_TYPE": 0, "CLASSIFICATION_TYPE": "U", "NORAD_CAT_ID": 34077, "ELEMENT_SET_NO": 999, "REV_AT_EPOCH": 88354, "BSTAR": 0.001264676, "MEAN_MOTION_DOT": 6.781e-05, "MEAN_MOTION_DDOT": 0}, "tle": {"line1": "1 34077U 97051CL  25348.20472874  .00006781  00000+0  12647-2 0  9992", "line2": "2 34077  86.3862  50.8618 0010051  34.9001  19.1188 14.64862687883546"}}, "geometry": {"type": "Point", "coordinates": [118.62282446343859, 86.10569940267266]}}, {"type": "Feature", "properties": {"norad_id": 34079, "name": "IRIDIUM 33 DEB", "group": "iridium-33-debris", "lat": -63.30178657430446, "lon": -165.20572729320753, "alt_km": 626.9596218765664, "timestamp": "2025-12-15T04:01:20.836986+00:00", "meta": {"OBJECT_NAME": "IRIDIUM 33 DEB", "OBJECT_ID": "1997-051CN", "EPOCH": "2025-12-14T07:33:52.163712", "MEAN_MOTION": 14.83583848, "ECCENTRICITY": 0.00054033, "INCLINATION": 86.378, "RA_OF_ASC_NODE": 7.946, "ARG_OF_PERICENTER": 3.2861, "MEAN_ANOMALY": 10.5471, "EPHEMERIS_TYPE": 0, "CLASSIFICATION_TYPE": "U", "NORAD_CAT_ID": 34079, "ELEMENT_SET_NO": 999, "REV_AT_EPOCH": 89001, "BSTAR": 0.0017176306, "MEAN_MOTION_DOT": 0.00014194, "MEAN_MOTION_DDOT": 0}, "tle": {"line1": "1 34079U 97051CN  25348.31518708  .00014194  00000+0  17176-2 0  9992", "line2": "2 34079  86.3780   7.9460 0005403   3.2861  10.5471 14.83583848890013"}}, "geometry": {"type": "Point", "coordinates": [-165.20572729320753, -63.30178657430446]}}, {"type": "Feature", "properties": {"norad_id": 34088, "name": "IRIDIUM 33 DEB", "group": "iridium-33-debris", "lat": 43.47732108073567, "lon": 33.04520340353365, "alt_km": 591.9807412420878, "timestamp": "2025-12-15T04:01:20.836996+00:00", "meta": {"OBJECT_NAME": "IRIDIUM 33 DEB", "OBJECT_ID": "1997-051CX", "EPOCH": "2025-12-14T03:56:23.951904", "MEAN_MOTION": 14.91481864, "ECCENTRICITY": 0.00059432, "INCLINATION": 86.3853, "RA_OF_ASC_NODE": 30.0697, "ARG_OF_PERICENTER": 171.4078, "MEAN_ANOMALY": 248.0297, "EPHEMERIS_TYPE": 0, "CLASSIFICATION_TYPE": "U", "NORAD_CAT_ID": 34088, "ELEMENT_SET_NO": 999, "REV_AT_EPOCH": 88763, "BSTAR": 0.0024702744, "MEAN_MOTION_DOT": 0.00024801, "MEAN_MOTION_DDOT": 0}, "tle": {"line1": "1 34088U 97051CX  25348.16416611  .00024801  00000+0  24703-2 0  9995", "line2": "2 34088  86.3853  30.0697 0005943 171.4078 248.0297 14.91481864887632"}}, "geometry": {"type": "Point", "coordinates": [33.04520340353365, 43.47732108073567]}}, {"type": "Feature", "properties": {"norad_id": 34091, "name": "IRIDIUM 33 DEB", "group": "iridium-33-debris", "lat": 33.87449159247121, "lon": -116.74067663610128, "alt_km": 638.3559813223374, "timestamp": "2025-12-15T04:01:20.837007+00:00", "meta": {"OBJECT_NAME": "IRIDIUM 33 DEB", "OBJECT_ID": "1997-051DA", "EPOCH": "2025-12-14T04:40:35.399424", "MEAN_MOTION": 14.81980164, "ECCENTRICITY": 0.00334508, "INCLINATION": 86.3414, "RA_OF_ASC_NODE": 66.1668, "ARG_OF_PERICENTER": 288.0463, "MEAN_ANOMALY": 71.7116, "EPHEMERIS_TYPE": 0, "CLASSIFICATION_TYPE": "U", "NORAD_CAT_ID": 34091, "ELEMENT_SET_NO": 999, "REV_AT_EPOCH": 87888, "BSTAR": 0.0049590842, "MEAN_MOTION_DOT": 0.00039901, "MEAN_MOTION_DDOT": 0}, "tle": {"line1": "1 34091U 97051DA  25348.19485416  .00039901  00000+0  49591-2 0  9990", "line2": "2 34091  86.3414  66.1668 0033450 288.0463  71.7116 14.81980164878888"}}, "geometry": {"type": "Point", "coordinates": [-116.74067663610128, 33.87449159247121]}}, {"type": "Feature", "properties": {"norad_id": 34097, "name": "IRIDIUM 33 DEB", "group": "iridium-33-debris", "lat": -17.348745843065306, "lon": -0.852441166867564, "alt_km": 722.9398157225642, "timestamp": "2025-12-15T04:01:20.837017+00:00", "meta": {"OBJECT_NAME": "IRIDIUM 33 DEB", "OBJECT_ID": "1997-051DG", "EPOCH": "2025-12-14T01:19:19.199712", "MEAN_MOTION": 14.34791546, "ECCENTRICITY": 0.00824166, "INCLINATION": 86.201, "RA_OF_ASC_NODE": 0.8277, "ARG_OF_PERICENTER": 357.9129, "MEAN_ANOMALY": 2.171, "EPHEMERIS_TYPE": 0, "CLASSIFICATION_TYPE": "U", "NORAD_CAT_ID": 34097, "ELEMENT_SET_NO": 999, "REV_AT_EPOCH": 87138, "BSTAR": 0.0016859905, "MEAN_MOTION_DOT": 4.986e-05, "MEAN_MOTION_DDOT": 0}, "tle": {"line1": "1 34097U 97051DG  25348.05508333  .00004986  00000+0  16860-2 0  9993", "line2": "2 34097  86.2010   0.8277 0082416 357.9129   2.1710 14.34791546871385"}}, "geometry": {"type": "Point", "coordinates": [-0.852441166867564, -17.348745843065306]}}, {"type": "Feature", "properties": {"norad_id": 34145, "name": "IRIDIUM 33 DEB", "group": "iridium-33-debris", "lat": -42.74084292779496, "lon": -32.06448149130143, "alt_km": 782.3255154025037, "timestamp": "2025-12-15T04:01:20.837027+00:00", "meta": {"OBJECT_NAME": "IRIDIUM 33 DEB", "OBJECT_ID": "1997-051DY", "EPOCH": "2025-12-14T03:14:44.008512", "MEAN_MOTION": 14.42302595, "ECCENTRICITY": 0.00557463, "INCLINATION": 86.2114, "RA_OF_ASC_NODE": 331.9058, "ARG_OF_PERICENTER": 89.3765, "MEAN_ANOMALY": 271.3823, "EPHEMERIS_TYPE": 0, "CLASSIFICATION_TYPE": "U", "NORAD_CAT_ID": 34145, "ELEMENT_SET_NO": 999, "REV_AT_EPOCH": 87658, "BSTAR": 0.0012897788, "MEAN_MOTION_DOT": 4.356e-05, "MEAN_MOTION_DDOT": 0}, "tle": {"line1": "1 34145U 97051DY  25348.13523158  .00004356  00000+0  12898-2 0  9996", "line2": "2 34145  86.2114 331.9058 0055746  89.3765 271.3823 14.42302595876580"}}, "geometry": {"type": "Point", "coordinates": [-32.06448149130143, -42.74084292779496]}}, {"type": "Feature", "properties": {"norad_id": 34146, "name": "IRIDIUM 33 DEB", "group": "iridium-33-debris", "lat": 14.335700213551709, "lon": -10.319735296754432, "alt_km": 746.9556644903196, "timestamp": "2025-12-15T04:01:20.837052+00:00", "meta": {"OBJECT_NAME": "IRIDIUM 33 DEB", "OBJECT_ID": "1997-051DZ", "EPOCH": "2025-12-14T06:29:42.870912", "MEAN_MOTION": 14.49064089, "ECCENTRICITY": 0.00256244, "INCLINATION": 86.2839, "RA_OF_ASC_NODE": 349.1246, "ARG_OF_PERICENTER": 216.196, "MEAN_ANOMALY": 162.0252, "EPHEMERIS_TYPE": 0, "CLASSIFICATION_TYPE": "U", "NORAD_CAT_ID": 34146, "ELEMENT_SET_NO": 999, "REV_AT_EPOCH": 88129, "BSTAR": 0.0010997924, "MEAN_MOTION_DOT": 4.212e-05, "MEAN_MOTION_DDOT": 0}, "tle": {"line1": "1 34146U 97051DZ  25348.27063508  .00004212  00000+0  10998-2 0  9990", "line2": "2 34146  86.2839 349.1246 0025624 216.1960 162.0252 14.49064089881290"}}, "geometry": {"type": "Point", "coordinates": [-10.319735296754432, 14.335700213551709]}}, {"type": "Feature", "properties": {"norad_id": 34159, "name": "IRIDIUM 33 DEB", "group": "iridium-33-debris", "lat": -2.782032388452281, "lon": 47.028581312322856, "alt_km": 762.9359913139833, "timestamp": "2025-12-15T04:01:20.837065+00:00", "meta": {"OBJECT_NAME": "IRIDIUM 33 DEB", "OBJECT_ID": "1997-051EN", "EPOCH": "2025-12-14T04:39:46.508256", "MEAN_MOTION": 14.38499893, "ECCENTRICITY": 0.00259263, "INCLINATION": 86.351, "RA_OF_ASC_NODE": 47.6211, "ARG_OF_PERICENTER": 282.6185, "MEAN_ANOMALY": 77.2114, "EPHEMERIS_TYPE": 0, "CLASSIFICATION_TYPE": "U", "NORAD_CAT_ID": 34159, "ELEMENT_SET_NO": 999, "REV_AT_EPOCH": 87980, "BSTAR": 0.00053043656, "MEAN_MOTION_DOT": 1.645e-05, "MEAN_MOTION_DDOT": 0}, "tle": {"line1": "1 34159U 97051EN  25348.19428829  .00001645  00000+0  53044-3 0  9993", "line2": "2 34159  86.3510  47.6211 0025926 282.6185  77.2114 14.38499893879806"}}, "geometry": {"type": "Point", "coordinates": [47.028581312322856, -2.782032388452281]}}, {"type": "Feature", "properties": {"norad_id": 34350, "name": "IRIDIUM 33 DEB", "group": "iridium-33-debris", "lat": 84.41117837665283, "lon": 42.77637345861296, "alt_km": 721.067534228906, "timestamp": "2025-12-15T04:01:20.837076+00:00", "meta": {"OBJECT_NAME": "IRIDIUM 33 DEB", "OBJECT_ID": "1997-051ES", "EPOCH": "2025-12-14T07:45:39.237120", "MEAN_MOTION": 14.45391202, "ECCENTRICITY": 0.00229581, "INCLINATION": 86.3275, "RA_OF_ASC_NODE": 2.12, "ARG_OF_PERICENTER": 130.2714, "MEAN_ANOMALY": 245.6158, "EPHEMERIS_TYPE": 0, "CLASSIFICATION_TYPE": "U", "NORAD_CAT_ID": 34350, "ELEMENT_SET_NO": 999, "REV_AT_EPOCH": 88316, "BSTAR": 0.00041566324, "MEAN_MOTION_DOT": 1.486e-05, "MEAN_MOTION_DDOT": 0}, "tle": {"line1": "1 34350U 97051ES  25348.32337080  .00001486  00000+0  41566-3 0  9998", "line2": "2 34350  86.3275   2.1200 0022958 130.2714 245.6158 14.45391202883165"}}, "geometry": {"type": "Point", "coordinates": [42.77637345861296, 84.41117837665283]}}, {"type": "Feature", "properties": {"norad_id": 34366, "name": "IRIDIUM 33 DEB", "group": "iridium-33-debris", "lat": 50.095224309593725, "lon": -136.0958993630537, "alt_km": 691.8426407513443, "timestamp": "2025-12-15T04:01:20.837087+00:00", "meta": {"OBJECT_NAME": "IRIDIUM 33 DEB", "OBJECT_ID": "1997-051FJ", "EPOCH": "2025-12-14T04:33:16.962624", "MEAN_MOTION": 14.54076443, "ECCENTRICITY": 0.00225871, "INCLINATION": 86.37, "RA_OF_ASC_NODE": 48.6828, "ARG_OF_PERICENTER": 135.0353, "MEAN_ANOMALY": 279.363, "EPHEMERIS_TYPE": 0, "CLASSIFICATION_TYPE": "U", "NORAD_CAT_ID": 34366, "ELEMENT_SET_NO": 999, "REV_AT_EPOCH": 88203, "BSTAR": 0.0011382007, "MEAN_MOTION_DOT": 4.841e-05, "MEAN_MOTION_DDOT": 0}, "tle": {"line1": "1 34366U 97051FJ  25348.18977966  .00004841  00000+0  11382-2 0  9992", "line2": "2 34366  86.3700  48.6828 0022587 135.0353 279.3630 14.54076443882037"}}, "geometry": {"type": "Point", "coordinates": [-136.0958993630537, 50.095224309593725]}}]}